[{"OBJECT_NAME":"STARLINK-1548","OBJECT_ID":"2020-055AD","EPOCH":"2026-03-09T16:00:03.000096","MEAN_MOTION":15.3017455,"ECCENTRICITY":0.0001744,"INCLINATION":53.1583,"RA_OF_ASC_NODE":114.0202,"ARG_OF_PERICENTER":82.7733,"MEAN_ANOMALY":164.9326,"EPHEMERIS_TYPE":0,"CLASSIFICATION_TYPE":"U","NORAD_CAT_ID":46054,"ELEMENT_SET_NO":999,"REV_AT_EPOCH":569,"BSTAR":0.00041773,"MEAN_MOTION_DOT":0.00012023,"MEAN_MOTION_DDOT":0},{"OBJECT_NAME":"KSLV-II R\/B","OBJECT_ID":"2023-072H","EPOCH":"2026-03-09T20:13:26.441760","MEAN_MOTION":15.33109439,"ECCENTRICITY":0.00241884,"INCLINATION":97.4991,"RA_OF_ASC_NODE":274.152,"ARG_OF_PERICENTER":318.2938,"MEAN_ANOMALY":41.646,"EPHEMERIS_TYPE":0,"CLASSIFICATION_TYPE":"U","NORAD_CAT_ID":56750,"ELEMENT_SET_NO":999,"REV_AT_EPOCH":15516,"BSTAR":0.00028309532,"MEAN_MOTION_DOT":9.057e-5,"MEAN_MOTION_DDOT":0}]
